STRIX-8                 
1 69701U 26146A   26193.03215821  .00002738  00000+0  20604-3 0  9999
2 69701  41.9901  30.6152 0007675   1.1720 358.9123 15.04418093  2303
ELECTRON R/B            
1 69702U 26146B   26192.99507275  .00361991  47188-4  94402-3 0  9990
2 69702  42.0748  22.3370 0178377 357.7672   2.2370 15.72488174  2405
ELECTRON KICK STAGE R/B 
1 69703U 26146C   26192.96053866  .00002478  00000+0  18524-3 0  9990
2 69703  41.9885  30.9396 0009504   1.8099 358.2761 15.04927884  2290
STARLINK-38055          
1 69704U 26147A   26193.06746859  .00326324  00000+0  16309-2 0  9992
2 69704  97.2843 229.2730 0001761 132.8641 227.2775 15.80956769  3366
STARLINK-37898          
1 69705U 26147B   26193.06664490  .00248228  00000+0  12540-2 0  9992
2 69705  97.2835 229.2730 0001629 118.2701 241.8732 15.80922108  3361
STARLINK-37970          
1 69706U 26147C   26193.06589244  .00323187  00000+0  16159-2 0  9994
2 69706  97.2833 229.2745 0001342 127.5244 232.6147 15.80956736  3365
STARLINK-37975          
1 69707U 26147D   26193.06513676  .00242656  00000+0  12272-2 0  9994
2 69707  97.2854 229.2773 0001349 117.2688 242.8718 15.80913942  3364
STARLINK-37972          
1 69708U 26147E   26193.06438742  .00091862  00000+0  47504-3 0  9993
2 69708  97.2841 229.2771 0000495  86.3056 273.8269 15.80827911  3360
STARLINK-37963          
1 69709U 26147F   26193.06363719  .00216328  00000+0  10971-2 0  9998
2 69709  97.2827 229.2768 0001575 122.0442 238.0980 15.80920898  3369
STARLINK-37969          
1 69710U 26147G   26193.06288714  .00291488  00000+0  14639-2 0  9996
2 69710  97.2838 229.2795 0001345 126.3685 233.7708 15.80939677  3369
STARLINK-37956          
1 69711U 26147H   26193.06213525  .00300561  00000+0  15072-2 0  9990
2 69711  97.2834 229.2802 0001430 121.6110 238.5298 15.80949346  3362
STARLINK-38043          
1 69712U 26147J   26193.06138323  .00183827  00000+0  93665-3 0  9992
2 69712  97.2839 229.2807 0001501 114.1060 246.0365 15.80902540  3367
STARLINK-38020          
1 69713U 26147K   26192.61750944  .00230058  00000+0  11659-2 0  9993
2 69713  97.2834 228.8161 0000736  76.1831 283.9519 15.80900509  3299
STARLINK-38059          
1 69714U 26147L   26193.05988080  .00333796  00000+0  16673-2 0  9991
2 69714  97.2840 229.2833 0001086 134.5027 225.6330 15.80950248  3360
STARLINK-38061          
1 69715U 26147M   26193.05913910  .00258827  00000+0  13072-2 0  9993
2 69715  97.2856 229.2858 0001467 113.3234 246.8189 15.80901816  3367
STARLINK-38060          
1 69716U 26147N   26193.05837810  .00175413  00000+0  89499-3 0  9994
2 69716  97.2840 229.2877 0001299 124.5105 235.6286 15.80894957  3367
STARLINK-38040          
1 69717U 26147P   26193.05762831  .00171491  00000+0  87622-3 0  9993
2 69717  97.2855 229.2871 0000407  64.6612 295.4698 15.80874252  3362
STARLINK-37989          
1 69718U 26147Q   26193.16668980 -.00105050  00000+0 -55258-3 0  9996
2 69718  97.2834 229.4053 0001291  86.5400 178.1078 15.80884149  3347
STARLINK-38039          
1 69719U 26147R   26191.53689243  .00345258  00000+0  17183-2 0  9999
2 69719  97.2855 227.6808 0001294 335.4308  24.6899 15.81001041  3120
STARLINK-38003          
1 69720U 26147S   26193.05536860  .00167107  00000+0  85430-3 0  9992
2 69720  97.2837 229.2885 0001230 108.8622 251.2780 15.80873645  3365
STARLINK-38014          
1 69721U 26147T   26193.05462071  .00139188  00000+0  71398-3 0  9991
2 69721  97.2856 229.2908 0001149  98.6566 261.4832 15.80873694  3360
STARLINK-37915          
1 69722U 26147U   26193.05386637  .00158452  00000+0  81082-3 0  9991
2 69722  97.2856 229.2920 0000908 109.5451 250.5915 15.80875943  3362
STARLINK-38007          
1 69723U 26147V   26193.16668980 -.00088912  00000+0 -46700-3 0  9991
2 69723  97.2832 229.4055 0001619  88.6835 179.4538 15.80869768  3347
STARLINK-38008          
1 69724U 26147W   26193.05236520  .00142105  00000+0  72873-3 0  9994
2 69724  97.2836 229.2928 0001370 117.3677 242.7730 15.80872397  3369
STARLINK-38021          
1 69725U 26147X   26193.05161420  .00290855  00000+0  14622-2 0  9994
2 69725  97.2858 229.2953 0000081  94.1595 265.9683 15.80917671  3360
STARLINK-38015          
1 69726U 26147Y   26193.05086034  .00117871  00000+0  60660-3 0  9992
2 69726  97.2832 229.2944 0001157 101.8323 258.3075 15.80860274  3360
STARLINK-38010          
1 69727U 26147Z   26193.16668980 -.00178209  00000+0 -12143-2 0  9997
2 69727  97.2840 229.3906 0001309 104.0609 126.9422 15.75277924  3342
SXM-11                  
1 69728U 26148A   26192.19375704 -.00000009  00000+0  00000+0 0  9997
2 69728   0.1241 265.9539 0001165  38.0982 293.8842  1.00471175   286
HAIYANG-2E              
1 69737U 26149A   26192.96736875 -.00000100  00000+0 -54312-4 0  9996
2 69737  99.3452 199.9355 0001572  95.1326 265.0006 13.79314861  1382
CZ-4B R/B               
1 69738U 26149B   26192.97312259  .00000062  00000+0  37351-4 0  9993
2 69738  99.3217 200.7616 0198273 339.3690  19.9565 14.30066829  1679
